STARLINK-36455          
1 67418U 26005Q   26038.50590266  .00124866  00000+0  20978-2 0  9995
2 67418  43.0002  50.7502 0001471 258.1767 101.8928 15.50614156  4057
STARLINK-36424          
1 67419U 26005R   26038.37639649  .00170183  00000+0  27918-2 0  9994
2 67419  43.0002  51.4980 0000858 256.2283 103.8482 15.51099463  4030
STARLINK-35564          
1 67420U 26005S   26038.50521540  .00126707  00000+0  21278-2 0  9997
2 67420  43.0000  50.7442 0001480 254.5110 105.5587 15.50618620  4055
STARLINK-36431          
1 67421U 26005T   26038.58335648  .00063100  00000+0  15082-2 0  9991
2 67421  43.0006  50.6085 0001284 271.2566  33.4336 15.40644027  5148
STARLINK-36418          
1 67422U 26005U   26038.58335648 -.01991650  00000+0 -47603-1 0  9998
2 67422  43.0002  50.3194 0001408 277.5460 146.6763 15.44150369  5307
STARLINK-36465          
1 67423U 26005V   26038.58335648  .00068864  00000+0  16439-2 0  9992
2 67423  43.0006  50.5488 0000898 282.6298  46.9262 15.40645700  5094
STARLINK-36362          
1 67424U 26005W   26038.58335648  .00071664  00000+0  17101-2 0  9992
2 67424  43.0004  50.4885 0000955 299.2411  55.2006 15.40640869  5346
STARLINK-36447          
1 67425U 26005X   26038.58335648  .00070556  00000+0  16838-2 0  9998
2 67425  43.0000  50.4268 0000883 282.1515  97.1574 15.40645688  5343
STARLINK-36146          
1 67426U 26005Y   26038.58335648 -.02005477  00000+0 -44478-1 0  9993
2 67426  43.0004  50.2775 0001396 283.5908 157.5541 15.46338046  5304
STARLINK-36459          
1 67427U 26005Z   26038.50290227 -.00238704  00000+0 -42691-2 0  9994
2 67427  43.0003  50.7246 0001444 313.7579  46.3161 15.50042225  4045
STARLINK-36464          
1 67428U 26005AA  26038.50212855  .00100554  00000+0  16960-2 0  9995
2 67428  43.0003  50.7187 0001562 249.8184 110.2508 15.50609548  4045
STARLINK-36513          
1 67429U 26005AB  26038.50178544  .00125078  00000+0  21005-2 0  9996
2 67429  43.0001  50.7152 0000932 259.6497 100.4258 15.50625492  4041
