CCSDS_OMM_VERS = 2.0
CREATION_DATE  = 
ORIGINATOR     = 

OBJECT_NAME    = STARLINK-36455
OBJECT_ID      = 2026-005Q
CENTER_NAME    = EARTH
REF_FRAME      = TEME
TIME_SYSTEM    = UTC
MEAN_ELEMENT_THEORY = SGP/SGP4

EPOCH          = 2026-02-07T12:08:29.989824
MEAN_MOTION    = 15.50614156
ECCENTRICITY   = .00014717
INCLINATION    = 43.0002
RA_OF_ASC_NODE = 50.7502
ARG_OF_PERICENTER = 258.1767
MEAN_ANOMALY   = 101.8928

EPHEMERIS_TYPE = 0
CLASSIFICATION_TYPE = U
NORAD_CAT_ID   = 67418
ELEMENT_SET_NO = 999
REV_AT_EPOCH   = 405
BSTAR          = .20978254E-2
MEAN_MOTION_DOT = .124866E-2
MEAN_MOTION_DDOT = 0

CCSDS_OMM_VERS = 2.0
CREATION_DATE  = 
ORIGINATOR     = 

OBJECT_NAME    = STARLINK-36424
OBJECT_ID      = 2026-005R
CENTER_NAME    = EARTH
REF_FRAME      = TEME
TIME_SYSTEM    = UTC
MEAN_ELEMENT_THEORY = SGP/SGP4

EPOCH          = 2026-02-07T09:02:00.656736
MEAN_MOTION    = 15.51099463
ECCENTRICITY   = .00008585
INCLINATION    = 43.0002
RA_OF_ASC_NODE = 51.4980
ARG_OF_PERICENTER = 256.2283
MEAN_ANOMALY   = 103.8482

EPHEMERIS_TYPE = 0
CLASSIFICATION_TYPE = U
NORAD_CAT_ID   = 67419
ELEMENT_SET_NO = 999
REV_AT_EPOCH   = 403
BSTAR          = .27918423E-2
MEAN_MOTION_DOT = .170183E-2
MEAN_MOTION_DDOT = 0

CCSDS_OMM_VERS = 2.0
CREATION_DATE  = 
ORIGINATOR     = 

OBJECT_NAME    = STARLINK-35564
OBJECT_ID      = 2026-005S
CENTER_NAME    = EARTH
REF_FRAME      = TEME
TIME_SYSTEM    = UTC
MEAN_ELEMENT_THEORY = SGP/SGP4

EPOCH          = 2026-02-07T12:07:30.610560
MEAN_MOTION    = 15.50618620
ECCENTRICITY   = .00014807
INCLINATION    = 43.0000
RA_OF_ASC_NODE = 50.7442
ARG_OF_PERICENTER = 254.5110
MEAN_ANOMALY   = 105.5587

EPHEMERIS_TYPE = 0
CLASSIFICATION_TYPE = U
NORAD_CAT_ID   = 67420
ELEMENT_SET_NO = 999
REV_AT_EPOCH   = 405
BSTAR          = .21278365E-2
MEAN_MOTION_DOT = .126707E-2
MEAN_MOTION_DDOT = 0

CCSDS_OMM_VERS = 2.0
CREATION_DATE  = 
ORIGINATOR     = 

OBJECT_NAME    = STARLINK-36431
OBJECT_ID      = 2026-005T
CENTER_NAME    = EARTH
REF_FRAME      = TEME
TIME_SYSTEM    = UTC
MEAN_ELEMENT_THEORY = SGP/SGP4

EPOCH          = 2026-02-07T14:00:01.999872
MEAN_MOTION    = 15.40644027
ECCENTRICITY   = .0001284
INCLINATION    = 43.0006
RA_OF_ASC_NODE = 50.6085
ARG_OF_PERICENTER = 271.2566
MEAN_ANOMALY   = 33.4336

EPHEMERIS_TYPE = 0
CLASSIFICATION_TYPE = U
NORAD_CAT_ID   = 67421
ELEMENT_SET_NO = 999
REV_AT_EPOCH   = 514
BSTAR          = .15081505E-2
MEAN_MOTION_DOT = .631E-3
MEAN_MOTION_DDOT = 0

CCSDS_OMM_VERS = 2.0
CREATION_DATE  = 
ORIGINATOR     = 

OBJECT_NAME    = STARLINK-36418
OBJECT_ID      = 2026-005U
CENTER_NAME    = EARTH
REF_FRAME      = TEME
TIME_SYSTEM    = UTC
MEAN_ELEMENT_THEORY = SGP/SGP4

EPOCH          = 2026-02-07T14:00:01.999872
MEAN_MOTION    = 15.44150369
ECCENTRICITY   = .00014087
INCLINATION    = 43.0002
RA_OF_ASC_NODE = 50.3194
ARG_OF_PERICENTER = 277.5460
MEAN_ANOMALY   = 146.6763

EPHEMERIS_TYPE = 0
CLASSIFICATION_TYPE = U
NORAD_CAT_ID   = 67422
ELEMENT_SET_NO = 999
REV_AT_EPOCH   = 530
BSTAR          = -.4760319E-1
MEAN_MOTION_DOT = -.199165E-1
MEAN_MOTION_DDOT = 0

CCSDS_OMM_VERS = 2.0
CREATION_DATE  = 
ORIGINATOR     = 

OBJECT_NAME    = STARLINK-36465
OBJECT_ID      = 2026-005V
CENTER_NAME    = EARTH
REF_FRAME      = TEME
TIME_SYSTEM    = UTC
MEAN_ELEMENT_THEORY = SGP/SGP4

EPOCH          = 2026-02-07T14:00:01.999872
MEAN_MOTION    = 15.40645700
ECCENTRICITY   = .00008982
INCLINATION    = 43.0006
RA_OF_ASC_NODE = 50.5488
ARG_OF_PERICENTER = 282.6298
MEAN_ANOMALY   = 46.9262

EPHEMERIS_TYPE = 0
CLASSIFICATION_TYPE = U
NORAD_CAT_ID   = 67423
ELEMENT_SET_NO = 999
REV_AT_EPOCH   = 509
BSTAR          = .16439121E-2
MEAN_MOTION_DOT = .68864E-3
MEAN_MOTION_DDOT = 0

CCSDS_OMM_VERS = 2.0
CREATION_DATE  = 
ORIGINATOR     = 

OBJECT_NAME    = STARLINK-36362
OBJECT_ID      = 2026-005W
CENTER_NAME    = EARTH
REF_FRAME      = TEME
TIME_SYSTEM    = UTC
MEAN_ELEMENT_THEORY = SGP/SGP4

EPOCH          = 2026-02-07T14:00:01.999872
MEAN_MOTION    = 15.40640869
ECCENTRICITY   = .00009557
INCLINATION    = 43.0004
RA_OF_ASC_NODE = 50.4885
ARG_OF_PERICENTER = 299.2411
MEAN_ANOMALY   = 55.2006

EPHEMERIS_TYPE = 0
CLASSIFICATION_TYPE = U
NORAD_CAT_ID   = 67424
ELEMENT_SET_NO = 999
REV_AT_EPOCH   = 534
BSTAR          = .17100995E-2
MEAN_MOTION_DOT = .71664E-3
MEAN_MOTION_DDOT = 0

CCSDS_OMM_VERS = 2.0
CREATION_DATE  = 
ORIGINATOR     = 

OBJECT_NAME    = STARLINK-36447
OBJECT_ID      = 2026-005X
CENTER_NAME    = EARTH
REF_FRAME      = TEME
TIME_SYSTEM    = UTC
MEAN_ELEMENT_THEORY = SGP/SGP4

EPOCH          = 2026-02-07T14:00:01.999872
MEAN_MOTION    = 15.40645688
ECCENTRICITY   = .00008839
INCLINATION    = 43.0000
RA_OF_ASC_NODE = 50.4268
ARG_OF_PERICENTER = 282.1515
MEAN_ANOMALY   = 97.1574

EPHEMERIS_TYPE = 0
CLASSIFICATION_TYPE = U
NORAD_CAT_ID   = 67425
ELEMENT_SET_NO = 999
REV_AT_EPOCH   = 534
BSTAR          = .16837647E-2
MEAN_MOTION_DOT = .70556E-3
MEAN_MOTION_DDOT = 0

CCSDS_OMM_VERS = 2.0
CREATION_DATE  = 
ORIGINATOR     = 

OBJECT_NAME    = STARLINK-36146
OBJECT_ID      = 2026-005Y
CENTER_NAME    = EARTH
REF_FRAME      = TEME
TIME_SYSTEM    = UTC
MEAN_ELEMENT_THEORY = SGP/SGP4

EPOCH          = 2026-02-07T14:00:01.999872
MEAN_MOTION    = 15.46338046
ECCENTRICITY   = .00013968
INCLINATION    = 43.0004
RA_OF_ASC_NODE = 50.2775
ARG_OF_PERICENTER = 283.5908
MEAN_ANOMALY   = 157.5541

EPHEMERIS_TYPE = 0
CLASSIFICATION_TYPE = U
NORAD_CAT_ID   = 67426
ELEMENT_SET_NO = 999
REV_AT_EPOCH   = 530
BSTAR          = -.44478458E-1
MEAN_MOTION_DOT = -.2005477E-1
MEAN_MOTION_DDOT = 0

CCSDS_OMM_VERS = 2.0
CREATION_DATE  = 
ORIGINATOR     = 

OBJECT_NAME    = STARLINK-36459
OBJECT_ID      = 2026-005Z
CENTER_NAME    = EARTH
REF_FRAME      = TEME
TIME_SYSTEM    = UTC
MEAN_ELEMENT_THEORY = SGP/SGP4

EPOCH          = 2026-02-07T12:04:10.756128
MEAN_MOTION    = 15.50042225
ECCENTRICITY   = .00014447
INCLINATION    = 43.0003
RA_OF_ASC_NODE = 50.7246
ARG_OF_PERICENTER = 313.7579
MEAN_ANOMALY   = 46.3161

EPHEMERIS_TYPE = 0
CLASSIFICATION_TYPE = U
NORAD_CAT_ID   = 67427
ELEMENT_SET_NO = 999
REV_AT_EPOCH   = 404
BSTAR          = -.4269088E-2
MEAN_MOTION_DOT = -.238704E-2
MEAN_MOTION_DDOT = 0

CCSDS_OMM_VERS = 2.0
CREATION_DATE  = 
ORIGINATOR     = 

OBJECT_NAME    = STARLINK-36464
OBJECT_ID      = 2026-005AA
CENTER_NAME    = EARTH
REF_FRAME      = TEME
TIME_SYSTEM    = UTC
MEAN_ELEMENT_THEORY = SGP/SGP4

EPOCH          = 2026-02-07T12:03:03.906720
MEAN_MOTION    = 15.50609548
ECCENTRICITY   = .00015629
INCLINATION    = 43.0003
RA_OF_ASC_NODE = 50.7187
ARG_OF_PERICENTER = 249.8184
MEAN_ANOMALY   = 110.2508

EPHEMERIS_TYPE = 0
CLASSIFICATION_TYPE = U
NORAD_CAT_ID   = 67428
ELEMENT_SET_NO = 999
REV_AT_EPOCH   = 404
BSTAR          = .16960488E-2
MEAN_MOTION_DOT = .100554E-2
MEAN_MOTION_DDOT = 0

CCSDS_OMM_VERS = 2.0
CREATION_DATE  = 
ORIGINATOR     = 

OBJECT_NAME    = STARLINK-36513
OBJECT_ID      = 2026-005AB
CENTER_NAME    = EARTH
REF_FRAME      = TEME
TIME_SYSTEM    = UTC
MEAN_ELEMENT_THEORY = SGP/SGP4

EPOCH          = 2026-02-07T12:02:34.262016
MEAN_MOTION    = 15.50625492
ECCENTRICITY   = .00009328
INCLINATION    = 43.0001
RA_OF_ASC_NODE = 50.7152
ARG_OF_PERICENTER = 259.6497
MEAN_ANOMALY   = 100.4258

EPHEMERIS_TYPE = 0
CLASSIFICATION_TYPE = U
NORAD_CAT_ID   = 67429
ELEMENT_SET_NO = 999
REV_AT_EPOCH   = 404
BSTAR          = .21004924E-2
MEAN_MOTION_DOT = .125078E-2
MEAN_MOTION_DDOT = 0

